{"type": "FeatureCollection", "features": [{"type": "Feature", "geometry": {"type": "Point", "coordinates": [10.194371, 53.655105]}, "properties": {"id": "cluster:090000349001", "name": "349000", "linien": ["U1"]}}, {"type": "Feature", "geometry": {"type": "Point", "coordinates": [10.256455, 53.6553]}, "properties": {"id": "cluster:090000359012", "name": "359012", "linien": ["U1"]}}, {"type": "Feature", "geometry": {"type": "Point", "coordinates": [9.994096, 53.677767]}, "properties": {"id": "cluster:090000369006", "name": "369006", "linien": ["U1"]}}, {"type": "Feature", "geometry": {"type": "Point", "coordinates": [10.145687, 53.679922]}, "properties": {"id": "cluster:090000729003", "name": "729002", "linien": ["U1"]}}, {"type": "Feature", "geometry": {"type": "Point", "coordinates": [10.150163, 53.675249]}, "properties": {"id": "cluster:090000729007", "name": "729006", "linien": ["U1"]}}, {"type": "Feature", "geometry": {"type": "Point", "coordinates": [9.531241, 53.564121]}, "properties": {"id": "de:03359:8000434", "name": "Agathenburg", "linien": ["S3", "S5"]}}, {"type": "Feature", "geometry": {"type": "Point", "coordinates": [10.242824, 53.661257]}, "properties": {"id": "de:01062:35901", "name": "Ahrensburg Ost", "linien": ["U1"]}}, {"type": "Feature", "geometry": {"type": "Point", "coordinates": [10.219993, 53.664552]}, "properties": {"id": "de:01062:34900", "name": "Ahrensburg West", "linien": ["U1"]}}, {"type": "Feature", "geometry": {"type": "Point", "coordinates": [10.158463, 53.490422]}, "properties": {"id": "de:02000:21953", "name": "Allermöhe", "linien": ["S2", "S7"]}}, {"type": "Feature", "geometry": {"type": "Point", "coordinates": [10.011558, 53.606392]}, "properties": {"id": "de:02000:90901", "name": "Alsterdorf", "linien": ["U1"]}}, {"type": "Feature", "geometry": {"type": "Point", "coordinates": [10.035467, 53.597719]}, "properties": {"id": "de:02000:70951", "name": "Alte Wöhr (Stadtpark)", "linien": ["S1", "S5"]}}, {"type": "Feature", "geometry": {"type": "Point", "coordinates": [10.064551, 53.586619]}, "properties": {"id": "de:02000:60900", "name": "Alter Teichweg", "linien": ["U1"]}}, {"type": "Feature", "geometry": {"type": "Point", "coordinates": [9.934681, 53.551846]}, "properties": {"id": "de:02000:80953", "name": "Altona", "linien": ["S1", "S2", "S3", "S5", "S7"]}}, {"type": "Feature", "geometry": {"type": "Point", "coordinates": [10.314502, 53.529966]}, "properties": {"id": "de:01053:25953", "name": "Aumühle", "linien": ["S2", "S7"]}}, {"type": "Feature", "geometry": {"type": "Point", "coordinates": [9.911044, 53.560063]}, "properties": {"id": "de:02000:80954", "name": "Bahrenfeld", "linien": ["S1"]}}, {"type": "Feature", "geometry": {"type": "Point", "coordinates": [10.044403, 53.587305]}, "properties": {"id": "de:02000:70950", "name": "Barmbek", "linien": ["S1", "S5", "U3"]}}, {"type": "Feature", "geometry": {"type": "Point", "coordinates": [9.981234, 53.544214]}, "properties": {"id": "de:02000:11907", "name": "Baumwall (Elbphilharmonie)", "linien": ["U3"]}}, {"type": "Feature", "geometry": {"type": "Point", "coordinates": [10.20613, 53.48991]}, "properties": {"id": "de:02000:25950", "name": "Bergedorf", "linien": ["S2", "S7"]}}, {"type": "Feature", "geometry": {"type": "Point", "coordinates": [10.023964, 53.553157]}, "properties": {"id": "de:02000:10952", "name": "Berliner Tor", "linien": ["S1", "S2", "S5", "S7", "U2", "U3", "U4"]}}, {"type": "Feature", "geometry": {"type": "Point", "coordinates": [10.139815, 53.626966]}, "properties": {"id": "de:02000:65900", "name": "Berne", "linien": ["U1"]}}, {"type": "Feature", "geometry": {"type": "Point", "coordinates": [10.107265, 53.542462]}, "properties": {"id": "de:02000:61904", "name": "Billstedt", "linien": ["U2", "U4"]}}, {"type": "Feature", "geometry": {"type": "Point", "coordinates": [10.095972, 53.516112]}, "properties": {"id": "de:02000:21950", "name": "Billwerder-Moorfleet", "linien": ["S2", "S7"]}}, {"type": "Feature", "geometry": {"type": "Point", "coordinates": [9.81512, 53.564469]}, "properties": {"id": "de:02000:81950", "name": "Blankenese", "linien": ["S1"]}}, {"type": "Feature", "geometry": {"type": "Point", "coordinates": [10.01487, 53.590779]}, "properties": {"id": "de:02000:70905", "name": "Borgweg (Stadtpark)", "linien": ["U3"]}}, {"type": "Feature", "geometry": {"type": "Point", "coordinates": [10.185588, 53.652952]}, "properties": {"id": "de:02000:71907", "name": "Buchenkamp", "linien": ["U1"]}}, {"type": "Feature", "geometry": {"type": "Point", "coordinates": [10.155555, 53.664724]}, "properties": {"id": "de:02000:72902", "name": "Buckhorn", "linien": ["U1"]}}, {"type": "Feature", "geometry": {"type": "Point", "coordinates": [10.041656, 53.555798]}, "properties": {"id": "de:02000:10908", "name": "Burgstraße", "linien": ["U2", "U4"]}}, {"type": "Feature", "geometry": {"type": "Point", "coordinates": [9.688242, 53.470475]}, "properties": {"id": "de:03359:51989", "name": "Buxtehude", "linien": ["S3", "S5"]}}, {"type": "Feature", "geometry": {"type": "Point", "coordinates": [9.962398, 53.569563]}, "properties": {"id": "de:02000:84902", "name": "Christuskirche", "linien": ["U2"]}}, {"type": "Feature", "geometry": {"type": "Point", "coordinates": [9.989662, 53.560939]}, "properties": {"id": "de:02000:11951", "name": "Dammtor (Messe/CCH)", "linien": ["S1", "S2", "S3", "S5", "S7"]}}, {"type": "Feature", "geometry": {"type": "Point", "coordinates": [10.040941, 53.579238]}, "properties": {"id": "de:02000:70902", "name": "Dehnhaide", "linien": ["U3"]}}, {"type": "Feature", "geometry": {"type": "Point", "coordinates": [9.934344, 53.568222]}, "properties": {"id": "de:02000:80958", "name": "Diebsteich", "linien": ["S2", "S3", "S5", "S7"]}}, {"type": "Feature", "geometry": {"type": "Point", "coordinates": [9.557981, 53.545517]}, "properties": {"id": "de:03359:8001493", "name": "Dollern", "linien": ["S3", "S5"]}}, {"type": "Feature", "geometry": {"type": "Point", "coordinates": [9.906243, 53.596271]}, "properties": {"id": "de:02000:84960", "name": "Eidelstedt", "linien": ["S2", "S3", "S5"]}}, {"type": "Feature", "geometry": {"type": "Point", "coordinates": [10.024235, 53.535093]}, "properties": {"id": "de:02000:11943", "name": "Elbbrücken", "linien": ["S3", "S5", "U4"]}}, {"type": "Feature", "geometry": {"type": "Point", "coordinates": [9.89306, 53.602871]}, "properties": {"id": "de:02000:82950", "name": "Elbgaustraße", "linien": ["S2", "S3", "S5"]}}, {"type": "Feature", "geometry": {"type": "Point", "coordinates": [9.952655, 53.571653]}, "properties": {"id": "de:02000:84901", "name": "Emilienstraße", "linien": ["U2"]}}, {"type": "Feature", "geometry": {"type": "Point", "coordinates": [9.985273, 53.58378]}, "properties": {"id": "de:02000:90907", "name": "Eppendorfer Baum", "linien": ["U3"]}}, {"type": "Feature", "geometry": {"type": "Point", "coordinates": [10.117671, 53.607117]}, "properties": {"id": "de:02000:63900", "name": "Farmsen", "linien": ["U1"]}}, {"type": "Feature", "geometry": {"type": "Point", "coordinates": [9.968667, 53.556936]}, "properties": {"id": "de:02000:11911", "name": "Feldstraße (Heiligengeistfeld)", "linien": ["U3"]}}, {"type": "Feature", "geometry": {"type": "Point", "coordinates": [9.819263, 53.47477]}, "properties": {"id": "de:02000:8002556", "name": "Fischbek", "linien": ["S3", "S5"]}}, {"type": "Feature", "geometry": {"type": "Point", "coordinates": [10.057416, 53.576349]}, "properties": {"id": "de:02000:60952", "name": "Friedrichsberg", "linien": ["S1", "S5"]}}, {"type": "Feature", "geometry": {"type": "Point", "coordinates": [10.026621, 53.632519]}, "properties": {"id": "de:02000:71901", "name": "Fuhlsbüttel", "linien": ["U1"]}}, {"type": "Feature", "geometry": {"type": "Point", "coordinates": [10.01671, 53.639662]}, "properties": {"id": "de:02000:71900", "name": "Fuhlsbüttel Nord", "linien": ["U1"]}}, {"type": "Feature", "geometry": {"type": "Point", "coordinates": [9.985958, 53.685448]}, "properties": {"id": "de:01060:36902", "name": "Garstedt", "linien": ["U1"]}}, {"type": "Feature", "geometry": {"type": "Point", "coordinates": [10.286722, 53.662599]}, "properties": {"id": "de:01062:35904", "name": "Großhansdorf", "linien": ["U1"]}}, {"type": "Feature", "geometry": {"type": "Point", "coordinates": [9.986483, 53.555659]}, "properties": {"id": "de:02000:11910", "name": "Gänsemarkt (Oper)", "linien": ["U2"]}}, {"type": "Feature", "geometry": {"type": "Point", "coordinates": [10.052244, 53.593615]}, "properties": {"id": "de:02000:70900", "name": "Habichtstraße", "linien": ["U3"]}}, {"type": "Feature", "geometry": {"type": "Point", "coordinates": [10.007589, 53.54059]}, "properties": {"id": "de:02000:11942", "name": "HafenCity Universität", "linien": ["U4"]}}, {"type": "Feature", "geometry": {"type": "Point", "coordinates": [9.943928, 53.592878]}, "properties": {"id": "de:02000:83900", "name": "Hagenbecks Tierpark", "linien": ["U2"]}}, {"type": "Feature", "geometry": {"type": "Point", "coordinates": [9.945224, 53.603889]}, "properties": {"id": "de:02000:91904", "name": "Hagendeel", "linien": ["U2"]}}, {"type": "Feature", "geometry": {"type": "Point", "coordinates": [9.989026, 53.572809]}, "properties": {"id": "de:02000:11900", "name": "Hallerstraße", "linien": ["U1"]}}, {"type": "Feature", "geometry": {"type": "Point", "coordinates": [9.839221, 53.630356]}, "properties": {"id": "de:01056:98950", "name": "Halstenbek", "linien": ["S3", "S5"]}}, {"type": "Feature", "geometry": {"type": "Point", "coordinates": [10.006703, 53.632486]}, "properties": {"id": "de:02000:99651", "name": "Hamburg Airport (Flughafen)", "linien": ["S1"]}}, {"type": "Feature", "geometry": {"type": "Point", "coordinates": [10.007748, 53.552827]}, "properties": {"id": "de:02000:10950", "name": "Hamburg Hbf", "linien": ["S1", "S2", "S3", "S5", "S7"]}}, {"type": "Feature", "geometry": {"type": "Point", "coordinates": [10.037294, 53.574456]}, "properties": {"id": "de:02000:70903", "name": "Hamburger Straße", "linien": ["U3"]}}, {"type": "Feature", "geometry": {"type": "Point", "coordinates": [10.055533, 53.555627]}, "properties": {"id": "de:02000:10909", "name": "Hammer Kirche", "linien": ["U2", "U4"]}}, {"type": "Feature", "geometry": {"type": "Point", "coordinates": [10.024066, 53.546102]}, "properties": {"id": "de:02000:10951", "name": "Hammerbrook (City Süd)", "linien": ["S3", "S5"]}}, {"type": "Feature", "geometry": {"type": "Point", "coordinates": [9.991411, 53.456963]}, "properties": {"id": "de:02000:49950", "name": "Harburg", "linien": ["S3", "S5"]}}, {"type": "Feature", "geometry": {"type": "Point", "coordinates": [9.980348, 53.460707]}, "properties": {"id": "de:02000:40950", "name": "Harburg Rathaus", "linien": ["S3", "S5"]}}, {"type": "Feature", "geometry": {"type": "Point", "coordinates": [10.055934, 53.564748]}, "properties": {"id": "de:02000:60950", "name": "Hasselbrook", "linien": ["S1", "S5"]}}, {"type": "Feature", "geometry": {"type": "Point", "coordinates": [10.006007, 53.55412]}, "properties": {"id": "de:02000:10905", "name": "Hauptbahnhof Nord", "linien": ["U2", "U4"]}}, {"type": "Feature", "geometry": {"type": "Point", "coordinates": [10.0095, 53.5521]}, "properties": {"id": "de:02000:10906", "name": "Hauptbahnhof Süd", "linien": ["U1", "U3"]}}, {"type": "Feature", "geometry": {"type": "Point", "coordinates": [9.962857, 53.465535]}, "properties": {"id": "de:02000:42950", "name": "Heimfeld (TU Hamburg)", "linien": ["S3", "S5"]}}, {"type": "Feature", "geometry": {"type": "Point", "coordinates": [9.842161, 53.561306]}, "properties": {"id": "de:02000:80957", "name": "Hochkamp", "linien": ["S1"]}}, {"type": "Feature", "geometry": {"type": "Point", "coordinates": [9.976312, 53.577649]}, "properties": {"id": "de:02000:90908", "name": "Hoheluftbrücke", "linien": ["U3"]}}, {"type": "Feature", "geometry": {"type": "Point", "coordinates": [10.068007, 53.635585]}, "properties": {"id": "de:02000:71951", "name": "Hoheneichen", "linien": ["S1"]}}, {"type": "Feature", "geometry": {"type": "Point", "coordinates": [10.147588, 53.678009]}, "properties": {"id": "de:01062:72901", "name": "Hoisbüttel", "linien": ["U1"]}}, {"type": "Feature", "geometry": {"type": "Point", "coordinates": [9.949334, 53.561864]}, "properties": {"id": "de:02000:84951", "name": "Holstenstraße", "linien": ["S1", "S2", "S3", "S5", "S7"]}}, {"type": "Feature", "geometry": {"type": "Point", "coordinates": [9.576287, 53.508882]}, "properties": {"id": "de:03359:8003002", "name": "Horneburg", "linien": ["S3", "S5"]}}, {"type": "Feature", "geometry": {"type": "Point", "coordinates": [10.083896, 53.553682]}, "properties": {"id": "de:02000:61902", "name": "Horner Rennbahn", "linien": ["U2", "U4"]}}, {"type": "Feature", "geometry": {"type": "Point", "coordinates": [9.99609, 53.594617]}, "properties": {"id": "de:02000:90903", "name": "Hudtwalckerstraße", "linien": ["U1"]}}, {"type": "Feature", "geometry": {"type": "Point", "coordinates": [9.814317, 53.576589]}, "properties": {"id": "de:02000:81951", "name": "Iserbrook", "linien": ["S1"]}}, {"type": "Feature", "geometry": {"type": "Point", "coordinates": [9.950332, 53.628194]}, "properties": {"id": "de:02000:91902", "name": "Joachim-Mähl-Straße", "linien": ["U2"]}}, {"type": "Feature", "geometry": {"type": "Point", "coordinates": [9.994312, 53.55294]}, "properties": {"id": "de:02000:11950", "name": "Jungfernstieg", "linien": ["S1", "S3", "S5", "S7", "U1", "U2", "U4"]}}, {"type": "Feature", "geometry": {"type": "Point", "coordinates": [9.990929, 53.58885]}, "properties": {"id": "de:02000:90904", "name": "Kellinghusenstraße", "linien": ["U1", "U3"]}}, {"type": "Feature", "geometry": {"type": "Point", "coordinates": [10.280428, 53.653124]}, "properties": {"id": "de:01062:35903", "name": "Kiekut", "linien": ["U1"]}}, {"type": "Feature", "geometry": {"type": "Point", "coordinates": [10.0159, 53.675165]}, "properties": {"id": "de:02000:92901", "name": "Kiwittsmoor", "linien": ["U1"]}}, {"type": "Feature", "geometry": {"type": "Point", "coordinates": [10.033312, 53.627981]}, "properties": {"id": "de:02000:71902", "name": "Klein Borstel", "linien": ["U1"]}}, {"type": "Feature", "geometry": {"type": "Point", "coordinates": [9.860487, 53.558147]}, "properties": {"id": "de:02000:80956", "name": "Klein Flottbek (Botanischer Garten)", "linien": ["S1"]}}, {"type": "Feature", "geometry": {"type": "Point", "coordinates": [9.988095, 53.581784]}, "properties": {"id": "de:02000:90905", "name": "Klosterstern", "linien": ["U1"]}}, {"type": "Feature", "geometry": {"type": "Point", "coordinates": [10.054536, 53.632532]}, "properties": {"id": "de:02000:71950", "name": "Kornweg (Klein Borstel)", "linien": ["S1"]}}, {"type": "Feature", "geometry": {"type": "Point", "coordinates": [9.867555, 53.615934]}, "properties": {"id": "de:01056:83950", "name": "Krupunder", "linien": ["S3", "S5"]}}, {"type": "Feature", "geometry": {"type": "Point", "coordinates": [9.943979, 53.547767]}, "properties": {"id": "de:02000:80952", "name": "Königstraße", "linien": ["S1", "S3", "S5", "S7"]}}, {"type": "Feature", "geometry": {"type": "Point", "coordinates": [9.971389, 53.546046]}, "properties": {"id": "de:02000:80950", "name": "Landungsbrücken", "linien": ["S1", "S3", "S5", "S7", "U3"]}}, {"type": "Feature", "geometry": {"type": "Point", "coordinates": [10.038, 53.561225]}, "properties": {"id": "de:02000:10953", "name": "Landwehr", "linien": ["S1", "S5"]}}, {"type": "Feature", "geometry": {"type": "Point", "coordinates": [9.930903, 53.579553]}, "properties": {"id": "de:02000:84952", "name": "Langenfelde", "linien": ["S2", "S3", "S5"]}}, {"type": "Feature", "geometry": {"type": "Point", "coordinates": [10.017219, 53.649003]}, "properties": {"id": "de:02000:92903", "name": "Langenhorn Markt", "linien": ["U1"]}}, {"type": "Feature", "geometry": {"type": "Point", "coordinates": [10.017586, 53.660996]}, "properties": {"id": "de:02000:92902", "name": "Langenhorn Nord", "linien": ["U1"]}}, {"type": "Feature", "geometry": {"type": "Point", "coordinates": [9.994636, 53.599903]}, "properties": {"id": "de:02000:90902", "name": "Lattenkamp (Sporthalle)", "linien": ["U1"]}}, {"type": "Feature", "geometry": {"type": "Point", "coordinates": [10.095496, 53.547388]}, "properties": {"id": "de:02000:61903", "name": "Legienstraße", "linien": ["U2", "U4"]}}, {"type": "Feature", "geometry": {"type": "Point", "coordinates": [10.019008, 53.5566]}, "properties": {"id": "de:02000:10903", "name": "Lohmühlenstraße", "linien": ["U1"]}}, {"type": "Feature", "geometry": {"type": "Point", "coordinates": [9.94765, 53.582063]}, "properties": {"id": "de:02000:83901", "name": "Lutterothstraße", "linien": ["U2"]}}, {"type": "Feature", "geometry": {"type": "Point", "coordinates": [10.028146, 53.559547]}, "properties": {"id": "de:02000:10902", "name": "Lübecker Straße", "linien": ["U1", "U3"]}}, {"type": "Feature", "geometry": {"type": "Point", "coordinates": [10.156232, 53.638894]}, "properties": {"id": "de:02000:71905", "name": "Meiendorfer Weg", "linien": ["U1"]}}, {"type": "Feature", "geometry": {"type": "Point", "coordinates": [10.124678, 53.538638]}, "properties": {"id": "de:02000:22900", "name": "Merkenstraße", "linien": ["U2"]}}, {"type": "Feature", "geometry": {"type": "Point", "coordinates": [9.976679, 53.558188]}, "properties": {"id": "de:02000:11909", "name": "Messehallen", "linien": ["U2"]}}, {"type": "Feature", "geometry": {"type": "Point", "coordinates": [10.000456, 53.547683]}, "properties": {"id": "de:02000:11903", "name": "Meßberg", "linien": ["U1"]}}, {"type": "Feature", "geometry": {"type": "Point", "coordinates": [10.131675, 53.497854]}, "properties": {"id": "de:02000:21951", "name": "Mittlerer Landweg", "linien": ["S2", "S7"]}}, {"type": "Feature", "geometry": {"type": "Point", "coordinates": [10.027564, 53.569422]}, "properties": {"id": "de:02000:70904", "name": "Mundsburg", "linien": ["U3"]}}, {"type": "Feature", "geometry": {"type": "Point", "coordinates": [10.002217, 53.551337]}, "properties": {"id": "de:02000:11904", "name": "Mönckebergstraße", "linien": ["U3"]}}, {"type": "Feature", "geometry": {"type": "Point", "coordinates": [10.150053, 53.528723]}, "properties": {"id": "de:02000:22902", "name": "Mümmelmannsberg", "linien": ["U2"]}}, {"type": "Feature", "geometry": {"type": "Point", "coordinates": [10.181221, 53.487961]}, "properties": {"id": "de:02000:21952", "name": "Nettelnburg", "linien": ["S2", "S7"]}}, {"type": "Feature", "geometry": {"type": "Point", "coordinates": [9.788929, 53.473078]}, "properties": {"id": "de:03353:51988", "name": "Neu Wulmstorf", "linien": ["S3", "S5"]}}, {"type": "Feature", "geometry": {"type": "Point", "coordinates": [9.852011, 53.474052]}, "properties": {"id": "de:02000:41951", "name": "Neugraben", "linien": ["S3", "S5"]}}, {"type": "Feature", "geometry": {"type": "Point", "coordinates": [9.639503, 53.481348]}, "properties": {"id": "de:03359:8004302", "name": "Neukloster", "linien": ["S3", "S5"]}}, {"type": "Feature", "geometry": {"type": "Point", "coordinates": [9.875872, 53.473074]}, "properties": {"id": "de:02000:41950", "name": "Neuwiedenthal", "linien": ["S3", "S5"]}}, {"type": "Feature", "geometry": {"type": "Point", "coordinates": [9.951739, 53.620235]}, "properties": {"id": "de:02000:91903", "name": "Niendorf Markt", "linien": ["U2"]}}, {"type": "Feature", "geometry": {"type": "Point", "coordinates": [9.95019, 53.640721]}, "properties": {"id": "de:02000:91900", "name": "Niendorf Nord", "linien": ["U2"]}}, {"type": "Feature", "geometry": {"type": "Point", "coordinates": [9.992376, 53.707938]}, "properties": {"id": "de:01060:36961", "name": "Norderstedt Mitte", "linien": ["U1"]}}, {"type": "Feature", "geometry": {"type": "Point", "coordinates": [10.001472, 53.678067]}, "properties": {"id": "de:02000:92900", "name": "Ochsenzoll", "linien": ["U1"]}}, {"type": "Feature", "geometry": {"type": "Point", "coordinates": [10.031582, 53.620686]}, "properties": {"id": "de:02000:90950", "name": "Ohlsdorf", "linien": ["S1", "S5", "U1"]}}, {"type": "Feature", "geometry": {"type": "Point", "coordinates": [10.137114, 53.694548]}, "properties": {"id": "de:02000:72900", "name": "Ohlstedt", "linien": ["U1"]}}, {"type": "Feature", "geometry": {"type": "Point", "coordinates": [10.128816, 53.617547]}, "properties": {"id": "de:02000:64900", "name": "Oldenfelde", "linien": ["U1"]}}, {"type": "Feature", "geometry": {"type": "Point", "coordinates": [9.951631, 53.576087]}, "properties": {"id": "de:02000:84900", "name": "Osterstraße", "linien": ["U2"]}}, {"type": "Feature", "geometry": {"type": "Point", "coordinates": [9.885279, 53.559165]}, "properties": {"id": "de:02000:80955", "name": "Othmarschen", "linien": ["S1"]}}, {"type": "Feature", "geometry": {"type": "Point", "coordinates": [9.926207, 53.559606]}, "properties": {"id": "de:02000:8002562", "name": "Ottensen", "linien": ["S1"]}}, {"type": "Feature", "geometry": {"type": "Point", "coordinates": [9.798308, 53.654729]}, "properties": {"id": "de:01056:99951", "name": "Pinneberg", "linien": ["S3", "S5"]}}, {"type": "Feature", "geometry": {"type": "Point", "coordinates": [10.093884, 53.651974]}, "properties": {"id": "de:02000:71953", "name": "Poppenbüttel", "linien": ["S1"]}}, {"type": "Feature", "geometry": {"type": "Point", "coordinates": [9.994716, 53.550494]}, "properties": {"id": "de:02000:11905", "name": "Rathaus", "linien": ["U3"]}}, {"type": "Feature", "geometry": {"type": "Point", "coordinates": [10.066047, 53.554228]}, "properties": {"id": "de:02000:61901", "name": "Rauhes Haus", "linien": ["U2", "U4"]}}, {"type": "Feature", "geometry": {"type": "Point", "coordinates": [9.957946, 53.549611]}, "properties": {"id": "de:02000:80951", "name": "Reeperbahn", "linien": ["S1", "S3", "S5", "S7"]}}, {"type": "Feature", "geometry": {"type": "Point", "coordinates": [10.253176, 53.508358]}, "properties": {"id": "de:01062:25951", "name": "Reinbek", "linien": ["S2", "S7"]}}, {"type": "Feature", "geometry": {"type": "Point", "coordinates": [9.989718, 53.695709]}, "properties": {"id": "de:01060:36901", "name": "Richtweg", "linien": ["U1"]}}, {"type": "Feature", "geometry": {"type": "Point", "coordinates": [9.75733, 53.583186]}, "properties": {"id": "de:02000:81953", "name": "Rissen", "linien": ["S1"]}}, {"type": "Feature", "geometry": {"type": "Point", "coordinates": [10.046572, 53.567642]}, "properties": {"id": "de:02000:60904", "name": "Ritterstraße", "linien": ["U1"]}}, {"type": "Feature", "geometry": {"type": "Point", "coordinates": [10.043181, 53.538694]}, "properties": {"id": "de:02000:10954", "name": "Rothenburgsort", "linien": ["S2", "S7"]}}, {"type": "Feature", "geometry": {"type": "Point", "coordinates": [9.986977, 53.548387]}, "properties": {"id": "de:02000:11906", "name": "Rödingsmarkt", "linien": ["U3"]}}, {"type": "Feature", "geometry": {"type": "Point", "coordinates": [10.033164, 53.605812]}, "properties": {"id": "de:02000:70952", "name": "Rübenkamp (City Nord)", "linien": ["S1", "S5"]}}, {"type": "Feature", "geometry": {"type": "Point", "coordinates": [10.032174, 53.589068]}, "properties": {"id": "de:02000:70906", "name": "Saarlandstraße", "linien": ["U3"]}}, {"type": "Feature", "geometry": {"type": "Point", "coordinates": [9.952717, 53.634793]}, "properties": {"id": "de:02000:91901", "name": "Schippelsweg", "linien": ["U2"]}}, {"type": "Feature", "geometry": {"type": "Point", "coordinates": [9.969906, 53.567907]}, "properties": {"id": "de:02000:84903", "name": "Schlump", "linien": ["U2", "U3"]}}, {"type": "Feature", "geometry": {"type": "Point", "coordinates": [10.260675, 53.653145]}, "properties": {"id": "de:01062:35902", "name": "Schmalenbeck", "linien": ["U1"]}}, {"type": "Feature", "geometry": {"type": "Point", "coordinates": [10.021828, 53.609495]}, "properties": {"id": "de:02000:90900", "name": "Sengelmannstraße (City Nord)", "linien": ["U1"]}}, {"type": "Feature", "geometry": {"type": "Point", "coordinates": [10.001065, 53.590393]}, "properties": {"id": "de:02000:90906", "name": "Sierichstraße", "linien": ["U3"]}}, {"type": "Feature", "geometry": {"type": "Point", "coordinates": [9.970143, 53.55051]}, "properties": {"id": "de:02000:80900", "name": "St.Pauli", "linien": ["U3"]}}, {"type": "Feature", "geometry": {"type": "Point", "coordinates": [9.477886, 53.595938]}, "properties": {"id": "de:03359:8000089", "name": "Stade", "linien": ["S3", "S5"]}}, {"type": "Feature", "geometry": {"type": "Point", "coordinates": [9.984558, 53.54948]}, "properties": {"id": "de:02000:11952", "name": "Stadthausbrücke", "linien": ["S1", "S3", "S5", "S7"]}}, {"type": "Feature", "geometry": {"type": "Point", "coordinates": [10.139178, 53.541044]}, "properties": {"id": "de:02000:22901", "name": "Steinfurther Allee", "linien": ["U2"]}}, {"type": "Feature", "geometry": {"type": "Point", "coordinates": [10.006249, 53.549259]}, "properties": {"id": "de:02000:10907", "name": "Steinstraße", "linien": ["U1"]}}, {"type": "Feature", "geometry": {"type": "Point", "coordinates": [9.918374, 53.589758]}, "properties": {"id": "de:02000:84953", "name": "Stellingen (Arenen)", "linien": ["S2", "S3", "S5"]}}, {"type": "Feature", "geometry": {"type": "Point", "coordinates": [9.989348, 53.55868]}, "properties": {"id": "de:02000:11901", "name": "Stephansplatz (Oper/CCH)", "linien": ["U1"]}}, {"type": "Feature", "geometry": {"type": "Point", "coordinates": [9.967725, 53.564065]}, "properties": {"id": "de:02000:84950", "name": "Sternschanze (Messe)", "linien": ["S1", "S2", "S3", "S5", "S7", "U3"]}}, {"type": "Feature", "geometry": {"type": "Point", "coordinates": [10.068038, 53.581772]}, "properties": {"id": "de:02000:60901", "name": "Straßburger Straße", "linien": ["U1"]}}, {"type": "Feature", "geometry": {"type": "Point", "coordinates": [9.797268, 53.581143]}, "properties": {"id": "de:02000:81952", "name": "Sülldorf", "linien": ["S1"]}}, {"type": "Feature", "geometry": {"type": "Point", "coordinates": [9.813854, 53.644381]}, "properties": {"id": "de:01056:99950", "name": "Thesdorf", "linien": ["S3", "S5"]}}, {"type": "Feature", "geometry": {"type": "Point", "coordinates": [10.066171, 53.53098]}, "properties": {"id": "de:02000:61950", "name": "Tiefstack", "linien": ["S2", "S7"]}}, {"type": "Feature", "geometry": {"type": "Point", "coordinates": [10.102177, 53.598255]}, "properties": {"id": "de:02000:63901", "name": "Trabrennbahn", "linien": ["U1"]}}, {"type": "Feature", "geometry": {"type": "Point", "coordinates": [10.02689, 53.564495]}, "properties": {"id": "de:02000:10900", "name": "Uhlandstraße", "linien": ["U3"]}}, {"type": "Feature", "geometry": {"type": "Point", "coordinates": [10.013016, 53.521167]}, "properties": {"id": "de:02000:54950", "name": "Veddel (BallinStadt)", "linien": ["S3", "S5"]}}, {"type": "Feature", "geometry": {"type": "Point", "coordinates": [10.163131, 53.650503]}, "properties": {"id": "de:02000:71904", "name": "Volksdorf", "linien": ["U1"]}}, {"type": "Feature", "geometry": {"type": "Point", "coordinates": [10.066849, 53.571709]}, "properties": {"id": "de:02000:60902", "name": "Wandsbek Markt", "linien": ["U1"]}}, {"type": "Feature", "geometry": {"type": "Point", "coordinates": [10.074904, 53.592451]}, "properties": {"id": "de:02000:63902", "name": "Wandsbek-Gartenstadt", "linien": ["U1", "U3"]}}, {"type": "Feature", "geometry": {"type": "Point", "coordinates": [10.058811, 53.569794]}, "properties": {"id": "de:02000:60951", "name": "Wandsbeker Chaussee", "linien": ["S1", "S5", "U1"]}}, {"type": "Feature", "geometry": {"type": "Point", "coordinates": [10.035619, 53.564755]}, "properties": {"id": "de:02000:10901", "name": "Wartenau", "linien": ["U1"]}}, {"type": "Feature", "geometry": {"type": "Point", "coordinates": [9.704995, 53.581871]}, "properties": {"id": "de:01056:85950", "name": "Wedel", "linien": ["S1"]}}, {"type": "Feature", "geometry": {"type": "Point", "coordinates": [10.082664, 53.641213]}, "properties": {"id": "de:02000:71952", "name": "Wellingsbüttel", "linien": ["S1"]}}, {"type": "Feature", "geometry": {"type": "Point", "coordinates": [10.006756, 53.498159]}, "properties": {"id": "de:02000:54951", "name": "Wilhelmsburg", "linien": ["S3", "S5"]}}, {"type": "Feature", "geometry": {"type": "Point", "coordinates": [10.277987, 53.520612]}, "properties": {"id": "de:01053:25952", "name": "Wohltorf", "linien": ["S2", "S7"]}}, {"type": "Feature", "geometry": {"type": "Point", "coordinates": [9.998467, 53.540428]}, "properties": {"id": "de:02000:11941", "name": "Überseequartier", "linien": ["U4"]}}]}